MEAN_MOTION;ECCENTRICITY;INCLINATION;RA_OF_ASC_NODE;ARG_OF_PERICENTER;MEAN_ANOMALY;BSTAR;MEAN_MOTION_DOT;MEAN_MOTION_DDOT;TYPE
12.83421012;0.0540665;99.024;98.9966;29.1621;333.8558;-2.717E-5;-4.3E-7;0;Amateur
12.83421028;0.0540663;99.024;99.1229;28.8091;334.1763;-1.8707E-5;-3.9E-7;0;Amateur
12.83421029;0.054064;99.0239;99.8175;26.867;335.9372;4.1371E-5;-1.3E-7;0;Amateur
12.83421049;0.0540635;99.0239;99.9438;26.5139;336.2571;5.4639E-5;-7.0E-8;0;Amateur
12.83421054;0.0540615;99.0237;100.6385;24.5722;338.0144;9.8365E-5;1.3E-7;0;Amateur
12.83421079;0.0540598;99.0237;101.0805;23.336;339.1319;0.00010155;1.4E-7;0;Amateur
12.83421077;0.0540579;99.0236;101.4594;22.2763;340.089;8.2067E-5;5.0E-8;0;Amateur
12.83421092;0.0540564;99.0236;101.9015;21.0402;341.2047;4.368E-5;-1.2E-7;0;Amateur
12.83421111;0.0540531;99.0235;102.7224;18.7439;343.2749;-3.0138E-5;-4.5E-7;0;Amateur
12.83421136;0.0540492;99.0234;103.6696;16.0944;345.6601;-3.8936E-5;-4.9E-7;0;Amateur
12.83421137;0.0540483;99.0234;103.859;15.5646;346.1367;-2.8264E-5;-4.5E-7;0;Amateur
12.83421132;0.0540459;99.0234;104.6168;13.4461;348.0412;1.9304E-5;-2.3E-7;0;Amateur
12.83421135;0.0540458;99.0233;104.6799;13.2696;348.1999;2.3168E-5;-2.2E-7;0;Amateur
12.8342112;0.0540424;99.0232;105.4377;11.1502;350.1034;4.3529E-5;-1.3E-7;0;Amateur
12.83421121;0.0540424;99.0232;105.5008;10.9735;350.2621;4.2406E-5;-1.3E-7;0;Amateur
12.83421102;0.0540394;99.0231;106.0691;9.3836;351.6891;1.1575E-5;-2.7E-7;0;Amateur
12.83421091;0.0540356;99.023;106.7638;7.4397;353.4329;-4.8071E-5;-5.4E-7;0;Amateur
12.83421084;0.0540337;99.023;107.1426;6.3795;354.3838;-7.2251E-5;-6.5E-7;0;Amateur
12.83421095;0.0540314;99.023;107.5846;5.1424;355.4929;-8.7047E-5;-7.1E-7;0;Amateur
12.83421067;0.0540296;99.023;107.9004;4.2584;356.2854;-8.5459E-5;-7.1E-7;0;Amateur
12.83421083;0.0540262;99.0229;108.4055;2.8449;357.5524;-5.1777E-5;-5.6E-7;0;Amateur
12.83421081;0.0540261;99.0229;108.4687;2.6682;357.7107;-4.6748E-5;-5.4E-7;0;Amateur
12.83421078;0.0540247;99.0229;108.7212;1.9614;358.3442;-1.8124E-5;-4.1E-7;0;Amateur
12.83421088;0.0540222;99.0228;109.2896;0.3712;359.7693;4.1403E-5;-1.4E-7;0;Amateur
12.83421088;0.0540222;99.0228;109.2896;0.3712;359.7693;4.1403E-5;-1.4E-7;0;Amateur
12.83421067;0.0540205;99.0227;109.5422;359.6645;0.4026;5.9349E-5;-7.0E-8;0;Amateur
12.83421066;0.0540181;99.0226;110.0474;358.2517;1.6688;7.6162E-5;1.0E-8;0;Amateur
12.83421054;0.0540167;99.0225;110.3632;357.3676;2.4612;7.2356E-5;-1.0E-8;0;Amateur
12.83421066;0.0540127;99.0224;111.1209;355.2463;4.3628;2.7592E-5;-2.1E-7;0;Amateur
12.83421076;0.0540125;99.0223;111.1841;355.0695;4.5213;2.4322E-5;-2.2E-7;0;Amateur
12.83421097;0.0540091;99.0222;111.9418;352.9484;6.4234;-2.6167E-5;-4.5E-7;0;Amateur
12.83421103;0.0540089;99.0222;112.005;352.7717;6.5819;-2.812E-5;-4.6E-7;0;Amateur
12.83421127;0.0540061;99.0221;112.7627;350.6509;8.4847;-1.719E-5;-4.1E-7;0;Amateur
12.83421131;0.0540054;99.0221;112.889;350.2974;8.8019;-1.2617E-5;-3.9E-7;0;Amateur
12.83421134;0.0540014;99.022;113.5836;348.3532;10.5476;3.9611E-5;-1.6E-7;0;Amateur
12.8342113;0.0539989;99.0218;114.3414;346.2322;12.4534;7.7488E-5;1.0E-8;0;Amateur
12.83421139;0.0539986;99.0218;114.4045;346.0553;12.6124;7.9949E-5;2.0E-8;0;Amateur
12.83421162;0.0539954;99.0217;115.1623;343.9328;14.5215;5.6522E-5;-9.0E-8;0;Amateur
12.83421164;0.0539954;99.0217;115.2254;343.7561;14.6806;5.1802E-5;-1.1E-7;0;Amateur
12.83421192;0.0539932;99.0216;115.7306;342.3417;15.954;5.8304E-6;-3.2E-7;0;Amateur
12.83421185;0.053992;99.0216;115.9832;341.6339;16.5916;-1.8102E-5;-4.2E-7;0;Amateur
12.83421194;0.0539919;99.0216;116.0463;341.4571;16.7509;-2.196E-5;-4.4E-7;0;Amateur
12.83421223;0.0539895;99.0216;116.5515;340.0418;18.0268;-5.7207E-5;-6.0E-7;0;Amateur
12.8342122;0.0539884;99.0215;116.8041;339.3341;18.6652;-6.2118E-5;-6.2E-7;0;Amateur
12.83421218;0.0539849;99.0215;117.625;337.0347;20.7415;-4.1025E-5;-5.3E-7;0;Amateur
12.83421206;0.0539845;99.0215;117.7513;336.6811;21.0611;-3.7545E-5;-5.1E-7;0;Amateur
12.8342118;0.0539812;99.0214;118.4459;334.7357;22.8209;1.3305E-5;-2.9E-7;0;Amateur
12.83421166;0.0539804;99.0214;118.5722;334.3819;23.1412;1.6305E-5;-2.7E-7;0;Amateur
12.83421126;0.0539779;99.0213;119.2669;332.4361;24.9044;2.996E-5;-2.1E-7;0;Amateur
12.83421143;0.0539755;99.0212;119.7089;331.1975;26.0283;2.0423E-5;-2.6E-7;0;Amateur
12.83421127;0.0539742;99.0211;120.0878;330.1357;26.9927;-2.3396E-6;-3.6E-7;0;Amateur
12.83421144;0.0539718;99.021;120.6561;328.5433;28.4409;-3.994E-5;-5.3E-7;0;Amateur
12.83421132;0.0539705;99.021;120.9087;327.8353;29.0855;-5.1943E-5;-5.8E-7;0;Amateur
12.83421173;0.0539679;99.0209;121.5402;326.0653;30.6988;-4.9017E-5;-5.7E-7;0;Amateur
12.83421198;0.0539669;99.0209;121.6665;325.711;31.0221;-3.6578E-5;-5.1E-7;0;Amateur
12.83421204;0.0539636;99.0208;122.4875;323.4107;33.1239;2.1139E-5;-2.6E-7;0;Amateur
12.83421189;0.0539633;99.0208;122.6138;323.0571;33.4474;2.6598E-5;-2.3E-7;0;Amateur
12.8342117;0.0539606;99.0206;123.3084;321.1111;35.2302;7.5277E-5;-2.0E-8;0;Amateur
12.83421192;0.0539584;99.0205;123.8136;319.6952;36.5299;8.7001E-5;3.0E-8;0;Amateur
12.83421191;0.0539572;99.0205;124.1293;318.8098;37.3438;8.1335E-5;1.0E-8;0;Amateur
12.83421229;0.0539554;99.0204;124.6345;317.3939;38.647;5.2347E-5;-1.2E-7;0;Amateur
12.83421236;0.0539547;99.0203;124.9502;316.5091;39.4625;3.0272E-5;-2.2E-7;0;Amateur
12.8342128;0.0539521;99.0203;125.7711;314.2079;41.5879;-1.7492E-5;-4.3E-7;0;Amateur
12.83421292;0.0539513;99.0203;126.2764;312.7938;42.8969;-2.7979E-5;-4.8E-7;0;Amateur
12.83421303;0.05395;99.0202;126.6553;311.7316;43.882;-1.3833E-5;-4.2E-7;0;Amateur
12.83421288;0.0539481;99.0201;127.3499;309.7849;45.6909;1.9327E-5;-2.7E-7;0;Amateur
12.83421267;0.0539478;99.0201;127.4762;309.431;46.0202;1.8545E-5;-2.7E-7;0;Amateur
12.83421258;0.0539457;99.0199;128.1708;307.4844;47.835;3.6061E-5;-2.0E-7;0;Amateur
12.83421274;0.0539444;99.0199;128.676;306.0677;49.1589;2.4577E-5;-2.5E-7;0;Amateur
12.83421257;0.0539439;99.0198;128.9917;305.1825;49.9875;6.7441E-6;-3.3E-7;0;Amateur
12.83421273;0.0539426;99.0197;129.7495;303.0578;51.9809;-4.0271E-5;-5.4E-7;0;Amateur
12.83421276;0.0539426;99.0197;129.8127;302.8811;52.147;-4.3071E-5;-5.5E-7;0;Amateur
12.83421294;0.0539417;99.0197;130.3179;301.4648;53.4797;-6.3962E-5;-6.4E-7;0;Amateur
12.83421284;0.0539412;99.0197;130.5705;300.7561;54.1477;-6.3977E-5;-6.4E-7;0;Amateur
12.8342129;0.0539411;99.0197;130.6336;300.5791;54.3146;-6.2699E-5;-6.4E-7;0;Amateur
12.83421278;0.0539406;99.0196;130.8862;299.8712;54.9828;-6.0005E-5;-6.3E-7;0;Amateur
12.83421271;0.05394;99.0196;131.202;298.986;55.8194;-4.7921E-5;-5.7E-7;0;Amateur
12.83421266;0.0539394;99.0196;131.5177;298.1005;56.6574;-2.6026E-5;-4.8E-7;0;Amateur
12.83421262;0.0539383;99.0195;131.8966;297.0377;57.665;1.7068E-6;-3.5E-7;0;Amateur
12.83421245;0.0539378;99.0194;132.2123;296.1526;58.5053;2.4397E-5;-2.5E-7;0;Amateur
12.83421247;0.0539368;99.0194;132.7175;294.7361;59.8527;4.5317E-5;-1.6E-7;0;Amateur
12.83421222;0.0539364;99.0193;133.0332;293.8511;60.6962;4.5826E-5;-1.6E-7;0;Amateur
12.83421235;0.0539357;99.0192;133.5384;292.4343;62.0491;3.2856E-5;-2.1E-7;0;Amateur
12.8342124;0.0539356;99.0192;133.8541;291.5484;62.8966;2.3346E-5;-2.6E-7;0;Amateur
12.83421263;0.0539347;99.0191;134.6118;289.4233;64.9352;-9.7768E-6;-4.0E-7;0;Amateur
12.83421268;0.0539347;99.0191;134.675;289.2462;65.1055;-1.0763E-5;-4.1E-7;0;Amateur
12.83421307;0.0539337;99.019;135.4327;287.1212;67.1521;-4.3575E-6;-3.8E-7;0;Amateur
12.83421302;0.0539336;99.019;135.4959;286.9445;67.3227;-4.3524E-6;-3.8E-7;0;Amateur
12.83421326;0.0539323;99.0189;136.2536;284.8202;69.377;3.6821E-5;-2.0E-7;0;Amateur
12.83421356;0.0539313;99.0188;137.0744;282.5191;71.6112;7.4162E-5;-3.0E-8;0;Amateur
12.83421362;0.0539313;99.0187;137.1376;282.3419;71.7836;7.4855E-5;-3.0E-8;0;Amateur
12.83421382;0.0539307;99.0187;137.6428;280.925;73.1645;7.1654E-5;-4.0E-8;0;Amateur
12.83421378;0.0539307;99.0186;137.8953;280.2167;73.856;6.1044E-5;-9.0E-8;0;Amateur
12.83421384;0.0539307;99.0186;137.9585;280.0398;74.0289;5.8782E-5;-1.0E-7;0;Amateur
12.83421372;0.0539303;99.0186;138.4005;278.7999;75.2421;2.161E-5;-2.6E-7;0;Amateur
12.83421389;0.0539307;99.0185;138.7162;277.9138;76.1107;7.3437E-6;-3.3E-7;0;Amateur
12.83421394;0.0539307;99.0185;138.7794;277.7368;76.2844;2.7447E-6;-3.5E-7;0;Amateur
12.83421413;0.0539306;99.0185;139.2214;276.4967;77.503;-2.4532E-5;-4.7E-7;0;Amateur
12.83421411;0.0539309;99.0185;139.5371;275.6111;78.3749;-3.3013E-5;-5.1E-7;0;Amateur
12.83421413;0.0539309;99.0185;139.6002;275.4341;78.5493;-3.4806E-5;-5.2E-7;0;Amateur
12.83421399;0.053931;99.0184;140.358;273.3095;80.6476;-3.1493E-5;-5.0E-7;0;Amateur
12.83421391;0.0539311;99.0184;140.4211;273.1322;80.8231;-3.3427E-5;-5.1E-7;0;Amateur
12.83421382;0.0539311;99.0184;141.1157;271.1848;82.7545;-2.9494E-6;-3.7E-7;0;Amateur
12.83421396;0.053931;99.0183;141.6208;269.7684;84.1637;1.5029E-5;-2.9E-7;0;Amateur
12.83421391;0.053931;99.0183;141.9366;268.8842;85.0453;2.1129E-5;-2.7E-7;0;Amateur
12.8342137;0.053932;99.0182;142.6943;266.7591;87.1699;-5.0293E-7;-3.6E-7;0;Amateur
12.83421357;0.0539328;99.0182;143.3258;264.9885;88.9469;-3.3781E-5;-5.1E-7;0;Amateur
12.83421365;0.0539337;99.0181;143.6415;264.1021;89.8385;-4.0094E-5;-5.4E-7;0;Amateur
12.8342138;0.0539344;99.018;144.3992;261.9774;91.9821;-3.1585E-5;-5.0E-7;0;Amateur
12.83421378;0.0539345;99.018;144.4623;261.7999;92.1616;-3.1389E-5;-5.0E-7;0;Amateur
12.83421422;0.053935;99.018;144.9043;260.5601;93.4168;-4.4256E-6;-3.8E-7;0;Amateur
12.83421419;0.0539355;99.018;145.22;259.6745;94.3151;1.523E-5;-2.9E-7;0;Amateur
12.83421413;0.0539355;99.018;145.2831;259.4977;94.4946;1.665E-5;-2.8E-7;0;Amateur
12.83421441;0.0539361;99.018;145.7251;258.2576;95.7555;4.5145E-5;-1.6E-7;0;Amateur
12.83421432;0.0539362;99.0179;145.9777;257.5504;96.4759;5.7801E-5;-1.0E-7;0;Amateur
12.83421461;0.0539367;99.0179;146.4829;256.1339;97.9217;7.0292E-5;-4.0E-8;0;Amateur
12.83421462;0.0539369;99.0178;146.7986;255.2497;98.8261;7.0894E-5;-4.0E-8;0;Amateur
12.83421482;0.0539381;99.0177;147.5563;253.1247;101.0055;4.5634E-5;-1.5E-7;0;Amateur
